{
  "type": "FeatureCollection",
  "features": [
    {
      "type": "Feature",
      "properties": {
        "norad_id": 29994,
        "name": "FENGYUN 1C DEB",
        "group": "fengyun-1c-debris",
        "lat": 68.10133052793296,
        "lon": -126.10437179210902,
        "alt_km": 842.2636930869685,
        "timestamp": "2025-12-25T07:00:34.318856+00:00",
        "meta_object_name": "FENGYUN 1C DEB",
        "meta_object_id": "1999-025LU",
        "meta_epoch": "2025-12-24T21:03:01.089216",
        "meta_mean_motion": 14.02645385,
        "meta_eccentricity": 0.01300476,
        "meta_inclination": 98.8265,
        "meta_ra_of_asc_node": 30.7538,
        "meta_arg_of_pericenter": 179.7114,
        "meta_mean_anomaly": 357.5202,
        "meta_ephemeris_type": 0,
        "meta_classification_type": "U",
        "meta_norad_cat_id": 29994,
        "meta_element_set_no": 999,
        "meta_rev_at_epoch": 96896,
        "meta_bstar": -1.6639204e-05,
        "meta_mean_motion_dot": -7e-07,
        "meta_mean_motion_ddot": 0,
        "tle_line1": "1 29994U 99025LU  25358.87709594 -.00000070  00000+0 -16639-4 0  9997",
        "tle_line2": "2 29994  98.8265  30.7538 0130047 179.7114 357.5202 14.02645385968964"
      },
      "geometry": {
        "type": "Point",
        "coordinates": [
          -126.10437179210902,
          68.10133052793296
        ]
      }
    },
    {
      "type": "Feature",
      "properties": {
        "norad_id": 29996,
        "name": "FENGYUN 1C DEB",
        "group": "fengyun-1c-debris",
        "lat": -58.890296146381836,
        "lon": -158.67813713896012,
        "alt_km": 961.8773179338041,
        "timestamp": "2025-12-25T07:00:34.318866+00:00",
        "meta_object_name": "FENGYUN 1C DEB",
        "meta_object_id": "1999-025LW",
        "meta_epoch": "2025-12-24T16:49:11.713728",
        "meta_mean_motion": 14.09493163,
        "meta_eccentricity": 0.0130521,
        "meta_inclination": 99.3037,
        "meta_ra_of_asc_node": 36.473,
        "meta_arg_of_pericenter": 54.4836,
        "meta_mean_anomaly": 67.4422,
        "meta_ephemeris_type": 0,
        "meta_classification_type": "U",
        "meta_norad_cat_id": 29996,
        "meta_element_set_no": 999,
        "meta_rev_at_epoch": 96305,
        "meta_bstar": 0.0018188727,
        "meta_mean_motion_dot": 3.394e-05,
        "meta_mean_motion_ddot": 0,
        "tle_line1": "1 29996U 99025LW  25358.70083002  .00003394  00000+0  18189-2 0  9990",
        "tle_line2": "2 29996  99.3037  36.4730 0130521  54.4836  67.4422 14.09493163963051"
      },
      "geometry": {
        "type": "Point",
        "coordinates": [
          -158.67813713896012,
          -58.890296146381836
        ]
      }
    },
    {
      "type": "Feature",
      "properties": {
        "norad_id": 29997,
        "name": "FENGYUN 1C DEB",
        "group": "fengyun-1c-debris",
        "lat": -45.36716016057868,
        "lon": -179.72094594293634,
        "alt_km": 873.6558417862725,
        "timestamp": "2025-12-25T07:00:34.318877+00:00",
        "meta_object_name": "FENGYUN 1C DEB",
        "meta_object_id": "1999-025LX",
        "meta_epoch": "2025-12-24T18:46:57.884160",
        "meta_mean_motion": 14.00906981,
        "meta_eccentricity": 0.00801093,
        "meta_inclination": 98.8828,
        "meta_ra_of_asc_node": 8.8979,
        "meta_arg_of_pericenter": 293.8407,
        "meta_mean_anomaly": 245.1137,
        "meta_ephemeris_type": 0,
        "meta_classification_type": "U",
        "meta_norad_cat_id": 29997,
        "meta_element_set_no": 999,
        "meta_rev_at_epoch": 96558,
        "meta_bstar": 0.00077093768,
        "meta_mean_motion_dot": 1.142e-05,
        "meta_mean_motion_ddot": 0,
        "tle_line1": "1 29997U 99025LX  25358.78261440  .00001142  00000+0  77094-3 0  9993",
        "tle_line2": "2 29997  98.8828   8.8979 0080109 293.8407 245.1137 14.00906981965587"
      },
      "geometry": {
        "type": "Point",
        "coordinates": [
          -179.72094594293634,
          -45.36716016057868
        ]
      }
    },
    {
      "type": "Feature",
      "properties": {
        "norad_id": 29998,
        "name": "FENGYUN 1C DEB",
        "group": "fengyun-1c-debris",
        "lat": -70.76082716093073,
        "lon": 88.53363435024444,
        "alt_km": 800.2446756308664,
        "timestamp": "2025-12-25T07:00:34.318888+00:00",
        "meta_object_name": "FENGYUN 1C DEB",
        "meta_object_id": "1999-025LY",
        "meta_epoch": "2025-12-24T21:15:56.087712",
        "meta_mean_motion": 14.28596378,
        "meta_eccentricity": 0.00053789,
        "meta_inclination": 99.3047,
        "meta_ra_of_asc_node": 60.0827,
        "meta_arg_of_pericenter": 260.3861,
        "meta_mean_anomaly": 99.6711,
        "meta_ephemeris_type": 0,
        "meta_classification_type": "U",
        "meta_norad_cat_id": 29998,
        "meta_element_set_no": 999,
        "meta_rev_at_epoch": 98048,
        "meta_bstar": 0.00093064665,
        "meta_mean_motion_dot": 2.287e-05,
        "meta_mean_motion_ddot": 0,
        "tle_line1": "1 29998U 99025LY  25358.88606583  .00002287  00000+0  93065-3 0  9993",
        "tle_line2": "2 29998  99.3047  60.0827 0005378 260.3861  99.6711 14.28596378980488"
      },
      "geometry": {
        "type": "Point",
        "coordinates": [
          88.53363435024444,
          -70.76082716093073
        ]
      }
    },
    {
      "type": "Feature",
      "properties": {
        "norad_id": 29999,
        "name": "FENGYUN 1C DEB",
        "group": "fengyun-1c-debris",
        "lat": 19.908813200239035,
        "lon": -19.95322959677894,
        "alt_km": 776.125938113084,
        "timestamp": "2025-12-25T07:00:34.318898+00:00",
        "meta_object_name": "FENGYUN 1C DEB",
        "meta_object_id": "1999-025LZ",
        "meta_epoch": "2025-12-24T22:42:48.624768",
        "meta_mean_motion": 14.20153052,
        "meta_eccentricity": 0.01897884,
        "meta_inclination": 98.5775,
        "meta_ra_of_asc_node": 342.8449,
        "meta_arg_of_pericenter": 91.3936,
        "meta_mean_anomaly": 324.6491,
        "meta_ephemeris_type": 0,
        "meta_classification_type": "U",
        "meta_norad_cat_id": 29999,
        "meta_element_set_no": 999,
        "meta_rev_at_epoch": 97897,
        "meta_bstar": 0.00032557033,
        "meta_mean_motion_dot": 7.9e-06,
        "meta_mean_motion_ddot": 0,
        "tle_line1": "1 29999U 99025LZ  25358.94639612  .00000790  00000+0  32557-3 0  9996",
        "tle_line2": "2 29999  98.5775 342.8449 0189788  91.3936 324.6491 14.20153052978979"
      },
      "geometry": {
        "type": "Point",
        "coordinates": [
          -19.95322959677894,
          19.908813200239035
        ]
      }
    },
    {
      "type": "Feature",
      "properties": {
        "norad_id": 30001,
        "name": "FENGYUN 1C DEB",
        "group": "fengyun-1c-debris",
        "lat": 80.49097994173219,
        "lon": 4.540948669206623,
        "alt_km": 731.846553142951,
        "timestamp": "2025-12-25T07:00:34.318909+00:00",
        "meta_object_name": "FENGYUN 1C DEB",
        "meta_object_id": "1999-025MA",
        "meta_epoch": "2025-12-24T16:18:00.661248",
        "meta_mean_motion": 14.38756095,
        "meta_eccentricity": 0.00361794,
        "meta_inclination": 98.9585,
        "meta_ra_of_asc_node": 74.2459,
        "meta_arg_of_pericenter": 62.8796,
        "meta_mean_anomaly": 91.0824,
        "meta_ephemeris_type": 0,
        "meta_classification_type": "U",
        "meta_norad_cat_id": 30001,
        "meta_element_set_no": 999,
        "meta_rev_at_epoch": 97603,
        "meta_bstar": 0.0025679335,
        "meta_mean_motion_dot": 7.908e-05,
        "meta_mean_motion_ddot": 0,
        "tle_line1": "1 30001U 99025MA  25358.67917432  .00007908  00000+0  25679-2 0  9995",
        "tle_line2": "2 30001  98.9585  74.2459 0036179  62.8796  91.0824 14.38756095976032"
      },
      "geometry": {
        "type": "Point",
        "coordinates": [
          4.540948669206623,
          80.49097994173219
        ]
      }
    },
    {
      "type": "Feature",
      "properties": {
        "norad_id": 30003,
        "name": "FENGYUN 1C DEB",
        "group": "fengyun-1c-debris",
        "lat": 19.081827992178717,
        "lon": -28.98451891808565,
        "alt_km": 902.0782950957964,
        "timestamp": "2025-12-25T07:00:34.318920+00:00",
        "meta_object_name": "FENGYUN 1C DEB",
        "meta_object_id": "1999-025MC",
        "meta_epoch": "2025-12-24T20:47:47.764320",
        "meta_mean_motion": 13.85634596,
        "meta_eccentricity": 0.01436454,
        "meta_inclination": 99.5784,
        "meta_ra_of_asc_node": 333.9293,
        "meta_arg_of_pericenter": 87.8431,
        "meta_mean_anomaly": 331.5549,
        "meta_ephemeris_type": 0,
        "meta_classification_type": "U",
        "meta_norad_cat_id": 30003,
        "meta_element_set_no": 999,
        "meta_rev_at_epoch": 95656,
        "meta_bstar": 0.0003376644,
        "meta_mean_motion_dot": 3.73e-06,
        "meta_mean_motion_ddot": 0,
        "tle_line1": "1 30003U 99025MC  25358.86652505  .00000373  00000+0  33766-3 0  9991",
        "tle_line2": "2 30003  99.5784 333.9293 0143645  87.8431 331.5549 13.85634596956567"
      },
      "geometry": {
        "type": "Point",
        "coordinates": [
          -28.98451891808565,
          19.081827992178717
        ]
      }
    }
  ]
}